[{"OBJECT_NAME":"STARLINK-3930","OBJECT_ID":"2022-051AM","EPOCH":"2026-03-09T10:15:48.915072","MEAN_MOTION":15.08836711,"ECCENTRICITY":0.00014574,"INCLINATION":53.2169,"RA_OF_ASC_NODE":120.2948,"ARG_OF_PERICENTER":89.3131,"MEAN_ANOMALY":270.8028,"EPHEMERIS_TYPE":0,"CLASSIFICATION_TYPE":"U","NORAD_CAT_ID":52568,"ELEMENT_SET_NO":999,"REV_AT_EPOCH":21154,"BSTAR":-3.986364e-5,"MEAN_MOTION_DOT":-9.22e-6,"MEAN_MOTION_DDOT":0},{"OBJECT_NAME":"CZ-4B DEB","OBJECT_ID":"2008-053L","EPOCH":"2026-03-08T19:52:33.417984","MEAN_MOTION":15.09778257,"ECCENTRICITY":0.00077037,"INCLINATION":97.7892,"RA_OF_ASC_NODE":87.441,"ARG_OF_PERICENTER":237.5543,"MEAN_ANOMALY":122.4941,"EPHEMERIS_TYPE":0,"CLASSIFICATION_TYPE":"U","NORAD_CAT_ID":36290,"ELEMENT_SET_NO":999,"REV_AT_EPOCH":71411,"BSTAR":0.00021001,"MEAN_MOTION_DOT":3.326e-5,"MEAN_MOTION_DDOT":0}]
